[{"OBJECT_NAME":"BISONSAT","OBJECT_ID":"2015-058L","EPOCH":"2026-03-09T11:49:35.353056","MEAN_MOTION":15.13791398,"ECCENTRICITY":0.00792382,"INCLINATION":64.7598,"RA_OF_ASC_NODE":135.3937,"ARG_OF_PERICENTER":90.6713,"MEAN_ANOMALY":270.349,"EPHEMERIS_TYPE":0,"CLASSIFICATION_TYPE":"U","NORAD_CAT_ID":40974,"ELEMENT_SET_NO":999,"REV_AT_EPOCH":10051,"BSTAR":0.0006711096,"MEAN_MOTION_DOT":0.00012971,"MEAN_MOTION_DDOT":0},{"OBJECT_NAME":"STARLINK-4572","OBJECT_ID":"2022-105AW","EPOCH":"2026-03-09T16:09:10.695744","MEAN_MOTION":15.21020685,"ECCENTRICITY":0.00018422,"INCLINATION":97.6182,"RA_OF_ASC_NODE":315.6347,"ARG_OF_PERICENTER":18.3505,"MEAN_ANOMALY":341.7796,"EPHEMERIS_TYPE":0,"CLASSIFICATION_TYPE":"U","NORAD_CAT_ID":53692,"ELEMENT_SET_NO":999,"REV_AT_EPOCH":19355,"BSTAR":0.00056421038,"MEAN_MOTION_DOT":0.00012459,"MEAN_MOTION_DDOT":0}]
